CCSDS_OMM_VERS = 2.0
CREATION_DATE  = 
ORIGINATOR     = 

OBJECT_NAME    = STARLINK-35833
OBJECT_ID      = 2025-265AC
CENTER_NAME    = EARTH
REF_FRAME      = TEME
TIME_SYSTEM    = UTC
MEAN_ELEMENT_THEORY = SGP/SGP4

EPOCH          = 2025-11-25T16:00:05.999904
MEAN_MOTION    = 15.94464628
ECCENTRICITY   = .00017381
INCLINATION    = 43.0016
RA_OF_ASC_NODE = 156.7487
ARG_OF_PERICENTER = 274.0355
MEAN_ANOMALY   = 117.0647

EPHEMERIS_TYPE = 0
CLASSIFICATION_TYPE = U
NORAD_CAT_ID   = 66542
ELEMENT_SET_NO = 999
REV_AT_EPOCH   = 225
BSTAR          = -.39464895E-2
MEAN_MOTION_DOT = -.1540787E-1
MEAN_MOTION_DDOT = .68296532E-3

CCSDS_OMM_VERS = 2.0
CREATION_DATE  = 
ORIGINATOR     = 

OBJECT_NAME    = STARLINK-35315
OBJECT_ID      = 2025-265AD
CENTER_NAME    = EARTH
REF_FRAME      = TEME
TIME_SYSTEM    = UTC
MEAN_ELEMENT_THEORY = SGP/SGP4

EPOCH          = 2025-11-25T16:00:05.999904
MEAN_MOTION    = 15.94535118
ECCENTRICITY   = .00018377
INCLINATION    = 43.0016
RA_OF_ASC_NODE = 156.7442
ARG_OF_PERICENTER = 273.5115
MEAN_ANOMALY   = 119.1528

EPHEMERIS_TYPE = 0
CLASSIFICATION_TYPE = U
NORAD_CAT_ID   = 66543
ELEMENT_SET_NO = 999
REV_AT_EPOCH   = 214
BSTAR          = -.39663689E-2
MEAN_MOTION_DOT = -.1554267E-1
MEAN_MOTION_DDOT = .69448449E-3

CCSDS_OMM_VERS = 2.0
CREATION_DATE  = 
ORIGINATOR     = 

OBJECT_NAME    = STARLINK-35728
OBJECT_ID      = 2025-265AE
CENTER_NAME    = EARTH
REF_FRAME      = TEME
TIME_SYSTEM    = UTC
MEAN_ELEMENT_THEORY = SGP/SGP4

EPOCH          = 2025-11-25T16:00:05.999904
MEAN_MOTION    = 15.94604380
ECCENTRICITY   = .00017954
INCLINATION    = 43.0014
RA_OF_ASC_NODE = 156.7410
ARG_OF_PERICENTER = 271.3258
MEAN_ANOMALY   = 122.7611

EPHEMERIS_TYPE = 0
CLASSIFICATION_TYPE = U
NORAD_CAT_ID   = 66544
ELEMENT_SET_NO = 999
REV_AT_EPOCH   = 225
BSTAR          = -.3986282E-2
MEAN_MOTION_DOT = -.1567702E-1
MEAN_MOTION_DDOT = .70605901E-3

CCSDS_OMM_VERS = 2.0
CREATION_DATE  = 
ORIGINATOR     = 

OBJECT_NAME    = SHIJIAN-30B
OBJECT_ID      = 2025-266B
CENTER_NAME    = EARTH
REF_FRAME      = TEME
TIME_SYSTEM    = UTC
MEAN_ELEMENT_THEORY = SGP/SGP4

EPOCH          = 2025-11-26T17:35:09.690720
MEAN_MOTION    = 15.15186153
ECCENTRICITY   = .0010302
INCLINATION    = 51.7965
RA_OF_ASC_NODE = 47.8441
ARG_OF_PERICENTER = 300.0724
MEAN_ANOMALY   = 59.9230

EPHEMERIS_TYPE = 0
CLASSIFICATION_TYPE = U
NORAD_CAT_ID   = 66546
ELEMENT_SET_NO = 999
REV_AT_EPOCH   = 115
BSTAR          = .57802E-3
MEAN_MOTION_DOT = .10706E-3
MEAN_MOTION_DDOT = 0

CCSDS_OMM_VERS = 2.0
CREATION_DATE  = 
ORIGINATOR     = 

OBJECT_NAME    = GLOBAL-33
OBJECT_ID      = 2025-267A
CENTER_NAME    = EARTH
REF_FRAME      = TEME
TIME_SYSTEM    = UTC
MEAN_ELEMENT_THEORY = SGP/SGP4

EPOCH          = 2025-11-26T05:28:04.582848
MEAN_MOTION    = 15.31078096
ECCENTRICITY   = .00063587
INCLINATION    = 42.0192
RA_OF_ASC_NODE = 152.2803
ARG_OF_PERICENTER = 301.1376
MEAN_ANOMALY   = 58.8837

EPHEMERIS_TYPE = 0
CLASSIFICATION_TYPE = U
NORAD_CAT_ID   = 66554
ELEMENT_SET_NO = 999
REV_AT_EPOCH   = 87
BSTAR          = .39783175E-3
MEAN_MOTION_DOT = .11976E-3
MEAN_MOTION_DDOT = 0

CCSDS_OMM_VERS = 2.0
CREATION_DATE  = 
ORIGINATOR     = 

OBJECT_NAME    = ELECTRON KICK STAGE R/B
OBJECT_ID      = 2025-267B
CENTER_NAME    = EARTH
REF_FRAME      = TEME
TIME_SYSTEM    = UTC
MEAN_ELEMENT_THEORY = SGP/SGP4

EPOCH          = 2025-11-26T05:24:53.720928
MEAN_MOTION    = 15.31743306
ECCENTRICITY   = .00080063
INCLINATION    = 42.0176
RA_OF_ASC_NODE = 152.2664
ARG_OF_PERICENTER = 299.5325
MEAN_ANOMALY   = 60.4714

EPHEMERIS_TYPE = 0
CLASSIFICATION_TYPE = U
NORAD_CAT_ID   = 66555
ELEMENT_SET_NO = 999
REV_AT_EPOCH   = 87
BSTAR          = .72788534E-3
MEAN_MOTION_DOT = .2263E-3
MEAN_MOTION_DDOT = 0

CCSDS_OMM_VERS = 2.0
CREATION_DATE  = 
ORIGINATOR     = 

OBJECT_NAME    = ELECTRON R/B
OBJECT_ID      = 2025-267C
CENTER_NAME    = EARTH
REF_FRAME      = TEME
TIME_SYSTEM    = UTC
MEAN_ELEMENT_THEORY = SGP/SGP4

EPOCH          = 2025-11-21T16:32:06.481824
MEAN_MOTION    = 15.83492186
ECCENTRICITY   = .0218594
INCLINATION    = 42.0620
RA_OF_ASC_NODE = 178.0185
ARG_OF_PERICENTER = 275.5638
MEAN_ANOMALY   = 82.0326

EPHEMERIS_TYPE = 0
CLASSIFICATION_TYPE = U
NORAD_CAT_ID   = 66556
ELEMENT_SET_NO = 999
REV_AT_EPOCH   = 18
BSTAR          = .18539664E-3
MEAN_MOTION_DOT = .33002E-2
MEAN_MOTION_DDOT = .7327328E-5

CCSDS_OMM_VERS = 2.0
CREATION_DATE  = 
ORIGINATOR     = 

OBJECT_NAME    = TJS-21
OBJECT_ID      = 2025-269A
CENTER_NAME    = EARTH
REF_FRAME      = TEME
TIME_SYSTEM    = UTC
MEAN_ELEMENT_THEORY = SGP/SGP4

EPOCH          = 2025-11-22T00:38:56.616288
MEAN_MOTION    = 2.00992210
ECCENTRICITY   = .75179873
INCLINATION    = 51.0366
RA_OF_ASC_NODE = 174.7096
ARG_OF_PERICENTER = 225.0489
MEAN_ANOMALY   = 41.6572

EPHEMERIS_TYPE = 0
CLASSIFICATION_TYPE = U
NORAD_CAT_ID   = 66586
ELEMENT_SET_NO = 999
REV_AT_EPOCH   = 2
BSTAR          = .53569978E-3
MEAN_MOTION_DOT = .3197E-4
MEAN_MOTION_DDOT = 0

CCSDS_OMM_VERS = 2.0
CREATION_DATE  = 
ORIGINATOR     = 

OBJECT_NAME    = CZ-3B R/B
OBJECT_ID      = 2025-269B
CENTER_NAME    = EARTH
REF_FRAME      = TEME
TIME_SYSTEM    = UTC
MEAN_ELEMENT_THEORY = SGP/SGP4

EPOCH          = 2025-11-23T12:20:01.405824
MEAN_MOTION    = 2.01516013
ECCENTRICITY   = .75253415
INCLINATION    = 51.3768
RA_OF_ASC_NODE = 174.0599
ARG_OF_PERICENTER = 225.2938
MEAN_ANOMALY   = 41.2116

EPHEMERIS_TYPE = 0
CLASSIFICATION_TYPE = U
NORAD_CAT_ID   = 66587
ELEMENT_SET_NO = 999
REV_AT_EPOCH   = 6
BSTAR          = .49596604E-3
MEAN_MOTION_DOT = .1032E-3
MEAN_MOTION_DDOT = -.913844E-6

